{
  "type": "FeatureCollection",
  "generated_at": "2026-09-06T12:05:00.000000+00:00",
  "features": [
    {
      "type": "Feature",
      "geometry": {
        "type": "Polygon",
        "coordinates": [[
          [-52.5832, -3.2963], [-52.5827, -3.2963],
          [-52.5827, -3.2957], [-52.583, -3.2957],
          [-52.5832, -3.2957], [-52.5832, -3.2963]
        ]]
      },
      "properties": {
        "plot_id": "RM-P1",
        "farm_id": "rancho-maranta",
        "name": "Rancho Maranta Plot 1 (house)",
        "hectares": 0.4,
        "status": "planted",
        "boundary_authority": "walk-approx",
        "owner": "Jedielcio family",
        "region": "Altamira, Para",
        "verified_at": "2026-08-31",
        "notes": "Extended from second GPS walk (17:03-17:17, 12 MOV + 5 HEIC): lat -3.2957..-3.2963, lng -52.5827..-52.5832. Walk radius ~60m around house; includes family moments."
      }
    },
    {
      "type": "Feature",
      "geometry": {
        "type": "Polygon",
        "coordinates": [[
          [-52.6, -3.3], [-52.58, -3.3],
          [-52.58, -3.28], [-52.6, -3.28],
          [-52.6, -3.3]
        ]]
      },
      "properties": {
        "plot_id": "RM-P2",
        "farm_id": "rancho-maranta",
        "name": "Rancho Maranta Plot 2 (family ~5 ha)",
        "hectares": 5,
        "status": "proposed",
        "boundary_authority": "walk-approx",
        "owner": "Jedielcio family",
        "region": "Altamira, Para",
        "verified_at": "2026-08-31",
        "notes": "Family cacao area walked Aug 2026."
      }
    },
    {
      "type": "Feature",
      "geometry": {
        "type": "Polygon",
        "coordinates": [[
          [-53.1, -3.0], [-53.05, -3.0],
          [-53.05, -2.95], [-53.1, -2.95],
          [-53.1, -3.0]
        ]]
      },
      "properties": {
        "plot_id": "B-06-58",
        "farm_id": "santa-anna-fazenda",
        "name": "Santa Anna Fazenda Plot 1 (compound)",
        "hectares": 2,
        "status": "proposed",
        "boundary_authority": "walk-approx",
        "owner": "Ana Lucia family",
        "region": "Altamira, Para",
        "verified_at": "2026-08-31",
        "notes": "Compound walk Aug 2026."
      }
    },
    {
      "type": "Feature",
      "geometry": {
        "type": "Polygon",
        "coordinates": [[
          [-53.2, -3.4], [-53.15, -3.4],
          [-53.15, -3.35], [-53.2, -3.35],
          [-53.2, -3.4]
        ]]
      },
      "properties": {
        "plot_id": "B-06-108",
        "farm_id": "fazenda-cleide",
        "name": "Fazenda Cleide Plot 1 (working areas)",
        "hectares": 3,
        "status": "proposed",
        "boundary_authority": "walk-approx",
        "owner": "Cleide family",
        "region": "Altamira, Para",
        "verified_at": "2026-08-31",
        "notes": "Working areas walk Aug 2026."
      }
    },
    {
      "type": "Feature",
      "geometry": {
        "type": "Polygon",
        "coordinates": [[
          [-52.0, -3.6], [-51.95, -3.6],
          [-51.95, -3.55], [-52.0, -3.55],
          [-52.0, -3.6]
        ]]
      },
      "properties": {
        "plot_id": "V-06-29",
        "farm_id": "paulo-la-do-sitio-para",
        "name": "Paulo La do Sitio Plot 1 (farmstead)",
        "hectares": 1.5,
        "status": "proposed",
        "boundary_authority": "walk-approx",
        "owner": "Paulo family",
        "region": "Medio Xingu, Para",
        "verified_at": "2026-08-31",
        "notes": "Farmstead walk Aug 2026."
      }
    },
    {
      "type": "Feature",
      "geometry": {
        "type": "Polygon",
        "coordinates": [[
          [-52.8, -3.1], [-52.75, -3.1],
          [-52.75, -3.05], [-52.8, -3.05],
          [-52.8, -3.1]
        ]]
      },
      "properties": {
        "plot_id": "PL-002",
        "farm_id": "fazenda-bom-sucesso",
        "name": "Fazenda Bom Sucesso",
        "hectares": 4,
        "status": "proposed",
        "boundary_authority": "walk-approx",
        "owner": "Bom Sucesso family",
        "region": "Altamira, Para",
        "verified_at": "2026-08-31",
        "notes": "Registered plot."
      }
    },
    {
      "type": "Feature",
      "geometry": {
        "type": "Polygon",
        "coordinates": [[
          [-53.4, -3.2], [-53.35, -3.2],
          [-53.35, -3.15], [-53.4, -3.15],
          [-53.4, -3.2]
        ]]
      },
      "properties": {
        "plot_id": "U-06-07",
        "farm_id": "raimundo-geniza-para",
        "name": "Sítio Raimundo & Geniza Plot 1 (restoration)",
        "hectares": 2.5,
        "status": "proposed",
        "boundary_authority": "walk-approx",
        "owner": "Raimundo & Geniza",
        "region": "Uruara, Para",
        "verified_at": "2026-08-31",
        "notes": "Restoration area walk Aug 2026."
      }
    },
    {
      "type": "Feature",
      "geometry": {
        "type": "Polygon",
        "coordinates": [[
          [-53.5, -3.5], [-53.45, -3.5],
          [-53.45, -3.45], [-53.5, -3.45],
          [-53.5, -3.5]
        ]]
      },
      "properties": {
        "plot_id": "DR-P1",
        "farm_id": "fazenda-dona-rosa",
        "name": "Fazenda Dona Rosa Plot 1 (processing yard)",
        "hectares": 1,
        "status": "proposed",
        "boundary_authority": "walk-approx",
        "owner": "Dona Rosa family",
        "region": "Medicilandia, Para",
        "verified_at": "2026-08-31",
        "notes": "Processing yard walk Aug 2026."
      }
    },
    {
      "type": "Feature",
      "geometry": {
        "type": "Polygon",
        "coordinates": [[
          [-53.6, -3.3], [-53.55, -3.3],
          [-53.55, -3.25], [-53.6, -3.25],
          [-53.6, -3.3]
        ]]
      },
      "properties": {
        "plot_id": "U-06-06",
        "farm_id": "fazenda-santa-rosa",
        "name": "Fazenda Santa Rosa Plot 1 (cacao area)",
        "hectares": 3.5,
        "status": "proposed",
        "boundary_authority": "walk-approx",
        "owner": "Antônio & Graça",
        "region": "Uruara, Para",
        "verified_at": "2026-08-31",
        "notes": "Cacao area walk Sep 2026."
      }
    },
    {
      "type": "Feature",
      "geometry": {
        "type": "Polygon",
        "coordinates": [[
          [-39.4029, -14.6544], [-39.3921, -14.6544],
          [-39.3921, -14.6288], [-39.4029, -14.6288],
          [-39.4029, -14.6544]
        ]]
      },
      "properties": {
        "plot_id": "SJ-P1",
        "farm_id": "fazenda-sao-jorge-bahia",
        "name": "Fazenda Sao Jorge Plot 1 (cabruca groves)",
        "hectares": 64.7,
        "status": "proposed",
        "boundary_authority": "approx",
        "owner": "Matheus & Mailan (Coopercabruca)",
        "region": "Itajuibe, Bahia",
        "verified_at": "2026-09-06",
        "notes": "Hull of 103 geotagged media (36 HEIC + 67 MOV, visits 2023-06-06 + 2023-09-21): lat -14.6544..-14.6288, lng -39.4029..-39.3921. ~64.7 ha cabruca cacao groves; source farm for shipment AGL6. approx boundary - needs walk/CAR."
      }
    },
    {
      "type": "Feature",
      "geometry": {
        "type": "Polygon",
        "coordinates": [[
          [-39.1088, -14.3262], [-39.1037, -14.3262],
          [-39.1037, -14.3222], [-39.1088, -14.3222],
          [-39.1088, -14.3262]
        ]]
      },
      "properties": {
        "plot_id": "FSA-P1",
        "farm_id": "fazenda-santa-ana-bahia",
        "name": "Fazenda Santa Ana Plot 1 (cabruca groves & processing)",
        "hectares": 16,
        "status": "proposed",
        "boundary_authority": "walk-approx",
        "owner": "Morbeck family (Chocolate Morbeck / Coopercabruca)",
        "region": "Urucuca, Bahia",
        "verified_at": "2026-09-06",
        "notes": "Hull of 242 geotagged media (151 MOV + 91 HEIC, visit 2023-09-18): lat -14.3262..-14.3222, lng -39.1088..-39.1037. ~450x350m walked cluster around the farmstead covering cabruca groves, fermentation room and drying terrace. approx boundary - needs walk/CAR."
      }
    }
  ]
}
