{
  "type": "FeatureCollection",
  "generated_at": "2026-09-01T17:25:54.773714Z",
  "features": [
    {
      "type": "Feature",
      "geometry": {
        "type": "Polygon",
        "coordinates": [
          [
            [
              -52.5768,
              -3.2936
            ],
            [
              -52.5771,
              -3.2934
            ],
            [
              -52.5777,
              -3.2935
            ],
            [
              -52.578,
              -3.2937
            ],
            [
              -52.5783,
              -3.2942
            ],
            [
              -52.5788,
              -3.2945
            ],
            [
              -52.5789,
              -3.2947
            ],
            [
              -52.5783,
              -3.2944
            ],
            [
              -52.5776,
              -3.294
            ],
            [
              -52.5768,
              -3.2936
            ]
          ]
        ]
      },
      "properties": {
        "plot_id": "RM-P2",
        "farm_id": "rancho-maranta",
        "name": "Rancho Maranta Plot 2 (family ~5 ha)",
        "hectares": 5.0,
        "status": "proposed",
        "boundary_authority": "approx",
        "owner": "Jedielcio family",
        "region": "Altamira, Para",
        "notes": "Walk track from 23 MOV clips (16:31-16:49) traces perimeter: lat -3.2934..-3.2947, lng -52.5768..-52.5789. Hull area approx 2.9 ha < claimed 5 ha -> needs CAR/INCRA polygon or full boundary walk for authority."
      }
    }
  ]
}